[{"OBJECT_NAME":"STARLINK-36412","OBJECT_ID":"2026-012AB","EPOCH":"2026-03-09T00:36:39.502080","MEAN_MOTION":15.27589895,"ECCENTRICITY":0.00070431,"INCLINATION":43.0014,"RA_OF_ASC_NODE":317.8493,"ARG_OF_PERICENTER":233.6209,"MEAN_ANOMALY":126.3993,"EPHEMERIS_TYPE":0,"CLASSIFICATION_TYPE":"U","NORAD_CAT_ID":67518,"ELEMENT_SET_NO":999,"REV_AT_EPOCH":766,"BSTAR":0.0010901534,"MEAN_MOTION_DOT":0.00029885,"MEAN_MOTION_DDOT":0},{"OBJECT_NAME":"SL-3 R\/B","OBJECT_ID":"1982-027B","EPOCH":"2026-03-09T22:44:40.208640","MEAN_MOTION":15.28335844,"ECCENTRICITY":0.00065199,"INCLINATION":81.188,"RA_OF_ASC_NODE":37.4466,"ARG_OF_PERICENTER":276.581,"MEAN_ANOMALY":83.4683,"EPHEMERIS_TYPE":0,"CLASSIFICATION_TYPE":"U","NORAD_CAT_ID":13121,"ELEMENT_SET_NO":999,"REV_AT_EPOCH":39859,"BSTAR":0.00030526741,"MEAN_MOTION_DOT":8.453e-5,"MEAN_MOTION_DDOT":0}]
